FENGYUN 1C DEB          
1 36154U 99025DSB 17345.72619479  .00001953  00000-0  13882-2 0  9991
2 36154  97.7119 317.1145 0324801  60.3440  61.7658 13.75956015455056
